[
  {
    "OBJECT_NAME": "OSCAR 7 (AO-7)",
    "OBJECT_ID": "1974-089B",
    "EPOCH": "2025-05-04T05:55:15.011328",
    "MEAN_MOTION": 12.53688817,
    "ECCENTRICITY": 0.0012158,
    "INCLINATION": 101.9943,
    "RA_OF_ASC_NODE": 128.123,
    "ARG_OF_PERICENTER": 189.7119,
    "MEAN_ANOMALY": 181.6541,
    "EPHEMERIS_TYPE": 0,
    "CLASSIFICATION_TYPE": "U",
    "NORAD_CAT_ID": 7530,
    "ELEMENT_SET_NO": 999,
    "REV_AT_EPOCH": 30951,
    "BSTAR": 0.0001167,
    "MEAN_MOTION_DOT": -2.8e-07,
    "MEAN_MOTION_DDOT": 0
  },
  {
    "OBJECT_NAME": "PHASE 3B (AO-10)",
    "OBJECT_ID": "1983-058B",
    "EPOCH": "2025-05-02T00:07:15.853440",
    "MEAN_MOTION": 2.05869928,
    "ECCENTRICITY": 0.6055176,
    "INCLINATION": 26.8506,
    "RA_OF_ASC_NODE": 288.6929,
    "ARG_OF_PERICENTER": 1.8222,
    "MEAN_ANOMALY": 359.522,
    "EPHEMERIS_TYPE": 0,
    "CLASSIFICATION_TYPE": "U",
    "NORAD_CAT_ID": 14129,
    "ELEMENT_SET_NO": 999,
    "REV_AT_EPOCH": 28701,
    "BSTAR": 0,
    "MEAN_MOTION_DOT": -4.5e-07,
    "MEAN_MOTION_DDOT": 0
  },
  {
    "OBJECT_NAME": "UOSAT 2 (UO-11)",
    "OBJECT_ID": "1984-021B",
    "EPOCH": "2025-05-04T04:28:36.496128",
    "MEAN_MOTION": 14.89271645,
    "ECCENTRICITY": 0.0009512,
    "INCLINATION": 97.7519,
    "RA_OF_ASC_NODE": 91.2849,
    "ARG_OF_PERICENTER": 95.7368,
    "MEAN_ANOMALY": 264.4934,
    "EPHEMERIS_TYPE": 0,
    "CLASSIFICATION_TYPE": "U",
    "NORAD_CAT_ID": 14781,
    "ELEMENT_SET_NO": 999,
    "REV_AT_EPOCH": 21722,
    "BSTAR": 0.00030321,
    "MEAN_MOTION_DOT": 2.819e-05,
    "MEAN_MOTION_DDOT": 0
  },
  {
    "OBJECT_NAME": "LUSAT (LO-19)",
    "OBJECT_ID": "1990-005G",
    "EPOCH": "2025-05-03T23:06:42.752448",
    "MEAN_MOTION": 14.3393936,
    "ECCENTRICITY": 0.0010999,
    "INCLINATION": 98.8992,
    "RA_OF_ASC_NODE": 129.1156,
    "ARG_OF_PERICENTER": 331.0217,
    "MEAN_ANOMALY": 29.0355,
    "EPHEMERIS_TYPE": 0,
    "CLASSIFICATION_TYPE": "U",
    "NORAD_CAT_ID": 20442,
    "ELEMENT_SET_NO": 999,
    "REV_AT_EPOCH": 84374,
    "BSTAR": 0.00011493,
    "MEAN_MOTION_DOT": 2.74e-06,
    "MEAN_MOTION_DDOT": 0
  },
  {
    "OBJECT_NAME": "EYESAT A (AO-27)",
    "OBJECT_ID": "1993-061C",
    "EPOCH": "2025-05-04T03:11:58.670016",
    "MEAN_MOTION": 14.30786158,
    "ECCENTRICITY": 0.000778,
    "INCLINATION": 98.7391,
    "RA_OF_ASC_NODE": 185.5024,
    "ARG_OF_PERICENTER": 213.0217,
    "MEAN_ANOMALY": 147.048,
    "EPHEMERIS_TYPE": 0,
    "CLASSIFICATION_TYPE": "U",
    "NORAD_CAT_ID": 22825,
    "ELEMENT_SET_NO": 999,
    "REV_AT_EPOCH": 64877,
    "BSTAR": 9.654e-05,
    "MEAN_MOTION_DOT": 2.08e-06,
    "MEAN_MOTION_DDOT": 0
  },
  {
    "OBJECT_NAME": "ITAMSAT (IO-26)",
    "OBJECT_ID": "1993-061D",
    "EPOCH": "2025-05-03T21:11:29.900544",
    "MEAN_MOTION": 14.31197746,
    "ECCENTRICITY": 0.0008584,
    "INCLINATION": 98.7339,
    "RA_OF_ASC_NODE": 185.1314,
    "ARG_OF_PERICENTER": 197.6388,
    "MEAN_ANOMALY": 162.4498,
    "EPHEMERIS_TYPE": 0,
    "CLASSIFICATION_TYPE": "U",
    "NORAD_CAT_ID": 22826,
    "ELEMENT_SET_NO": 999,
    "REV_AT_EPOCH": 64901,
    "BSTAR": 0.00010646,
    "MEAN_MOTION_DOT": 2.36e-06,
    "MEAN_MOTION_DDOT": 0
  },
  {
    "OBJECT_NAME": "RADIO ROSTO (RS-15)",
    "OBJECT_ID": "1994-085A",
    "EPOCH": "2025-05-03T21:41:47.498208",
    "MEAN_MOTION": 11.27581472,
    "ECCENTRICITY": 0.0145657,
    "INCLINATION": 64.8163,
    "RA_OF_ASC_NODE": 245.114,
    "ARG_OF_PERICENTER": 81.5534,
    "MEAN_ANOMALY": 280.1869,
    "EPHEMERIS_TYPE": 0,
    "CLASSIFICATION_TYPE": "U",
    "NORAD_CAT_ID": 23439,
    "ELEMENT_SET_NO": 999,
    "REV_AT_EPOCH": 24975,
    "BSTAR": 0.0003163,
    "MEAN_MOTION_DOT": -3.1e-07,
    "MEAN_MOTION_DDOT": 0
  },
  {
    "OBJECT_NAME": "JAS-2 (FO-29)",
    "OBJECT_ID": "1996-046B",
    "EPOCH": "2025-05-03T17:04:30.396288",
    "MEAN_MOTION": 13.53246032,
    "ECCENTRICITY": 0.0350954,
    "INCLINATION": 98.5796,
    "RA_OF_ASC_NODE": 22.4504,
    "ARG_OF_PERICENTER": 78.1486,
    "MEAN_ANOMALY": 285.8783,
    "EPHEMERIS_TYPE": 0,
    "CLASSIFICATION_TYPE": "U",
    "NORAD_CAT_ID": 24278,
    "ELEMENT_SET_NO": 999,
    "REV_AT_EPOCH": 41778,
    "BSTAR": 7.0913e-05,
    "MEAN_MOTION_DOT": 3.7e-07,
    "MEAN_MOTION_DDOT": 0
  },
  {
    "OBJECT_NAME": "TECHSAT 1B (GO-32)",
    "OBJECT_ID": "1998-043D",
    "EPOCH": "2025-05-03T21:09:18.830016",
    "MEAN_MOTION": 14.24305028,
    "ECCENTRICITY": 9.62e-05,
    "INCLINATION": 98.9684,
    "RA_OF_ASC_NODE": 102.2396,
    "ARG_OF_PERICENTER": 11.2604,
    "MEAN_ANOMALY": 348.8596,
    "EPHEMERIS_TYPE": 0,
    "CLASSIFICATION_TYPE": "U",
    "NORAD_CAT_ID": 25397,
    "ELEMENT_SET_NO": 999,
    "REV_AT_EPOCH": 39306,
    "BSTAR": 9.8084e-05,
    "MEAN_MOTION_DOT": 1.8e-06,
    "MEAN_MOTION_DDOT": 0
  },
  {
    "OBJECT_NAME": "ISS (ZARYA)",
    "OBJECT_ID": "1998-067A",
    "EPOCH": "2025-05-04T04:13:12.082656",
    "MEAN_MOTION": 15.49334428,
    "ECCENTRICITY": 0.0002347,
    "INCLINATION": 51.6364,
    "RA_OF_ASC_NODE": 165.0572,
    "ARG_OF_PERICENTER": 78.0135,
    "MEAN_ANOMALY": 27.5001,
    "EPHEMERIS_TYPE": 0,
    "CLASSIFICATION_TYPE": "U",
    "NORAD_CAT_ID": 25544,
    "ELEMENT_SET_NO": 999,
    "REV_AT_EPOCH": 50833,
    "BSTAR": 0.00020479,
    "MEAN_MOTION_DOT": 0.0001098,
    "MEAN_MOTION_DDOT": 0
  },
  {
    "OBJECT_NAME": "PCSAT (NO-44)",
    "OBJECT_ID": "2001-043C",
    "EPOCH": "2025-05-03T16:35:57.819552",
    "MEAN_MOTION": 14.31715833,
    "ECCENTRICITY": 0.0005708,
    "INCLINATION": 67.0512,
    "RA_OF_ASC_NODE": 223.2124,
    "ARG_OF_PERICENTER": 272.6492,
    "MEAN_ANOMALY": 87.3956,
    "EPHEMERIS_TYPE": 0,
    "CLASSIFICATION_TYPE": "U",
    "NORAD_CAT_ID": 26931,
    "ELEMENT_SET_NO": 999,
    "REV_AT_EPOCH": 23182,
    "BSTAR": 0.00016519,
    "MEAN_MOTION_DOT": 3.58e-06,
    "MEAN_MOTION_DDOT": 0
  },
  {
    "OBJECT_NAME": "SAUDISAT 1C (SO-50)",
    "OBJECT_ID": "2002-058C",
    "EPOCH": "2025-05-03T23:14:07.264032",
    "MEAN_MOTION": 14.8152375,
    "ECCENTRICITY": 0.005195,
    "INCLINATION": 64.5543,
    "RA_OF_ASC_NODE": 313.5388,
    "ARG_OF_PERICENTER": 342.5947,
    "MEAN_ANOMALY": 17.3375,
    "EPHEMERIS_TYPE": 0,
    "CLASSIFICATION_TYPE": "U",
    "NORAD_CAT_ID": 27607,
    "ELEMENT_SET_NO": 999,
    "REV_AT_EPOCH": 20401,
    "BSTAR": 0.00027747,
    "MEAN_MOTION_DOT": 2.084e-05,
    "MEAN_MOTION_DDOT": 0
  },
  {
    "OBJECT_NAME": "CUTE-1 (CO-55)",
    "OBJECT_ID": "2003-031E",
    "EPOCH": "2025-05-03T13:54:41.363424",
    "MEAN_MOTION": 14.23965551,
    "ECCENTRICITY": 0.0008473,
    "INCLINATION": 98.6772,
    "RA_OF_ASC_NODE": 132.3296,
    "ARG_OF_PERICENTER": 298.6375,
    "MEAN_ANOMALY": 61.3951,
    "EPHEMERIS_TYPE": 0,
    "CLASSIFICATION_TYPE": "U",
    "NORAD_CAT_ID": 27844,
    "ELEMENT_SET_NO": 999,
    "REV_AT_EPOCH": 13337,
    "BSTAR": 0.000284,
    "MEAN_MOTION_DOT": 6.08e-06,
    "MEAN_MOTION_DDOT": 0
  },
  {
    "OBJECT_NAME": "CUBESAT XI-IV (CO-57)",
    "OBJECT_ID": "2003-031J",
    "EPOCH": "2025-05-03T13:56:49.276896",
    "MEAN_MOTION": 14.23304421,
    "ECCENTRICITY": 0.0008623,
    "INCLINATION": 98.6801,
    "RA_OF_ASC_NODE": 132.3645,
    "ARG_OF_PERICENTER": 317.9738,
    "MEAN_ANOMALY": 42.0778,
    "EPHEMERIS_TYPE": 0,
    "CLASSIFICATION_TYPE": "U",
    "NORAD_CAT_ID": 27848,
    "ELEMENT_SET_NO": 999,
    "REV_AT_EPOCH": 13310,
    "BSTAR": 0.00024685,
    "MEAN_MOTION_DOT": 5.16e-06,
    "MEAN_MOTION_DDOT": 0
  }
]