OSCAR 7 (AO-7)          
1 07530U 74089B   25124.24670152 -.00000028  00000+0  11670-3 0  9992
2 07530 101.9943 128.1230 0012158 189.7119 181.6541 12.53688817309517
PHASE 3B (AO-10)        
1 14129U 83058B   25122.00504460 -.00000045  00000+0  00000+0 0  9990
2 14129  26.8506 288.6929 6055176   1.8222 359.5220  2.05869928287018
UOSAT 2 (UO-11)         
1 14781U 84021B   25124.18653352  .00002819  00000+0  30321-3 0  9994
2 14781  97.7519  91.2849 0009512  95.7368 264.4934 14.89271645217222
LUSAT (LO-19)           
1 20442U 90005G   25123.96299482  .00000274  00000+0  11493-3 0  9991
2 20442  98.8992 129.1156 0010999 331.0217  29.0355 14.33939360843740
EYESAT A (AO-27)        
1 22825U 93061C   25124.13331794  .00000208  00000+0  96540-4 0  9990
2 22825  98.7391 185.5024 0007780 213.0217 147.0480 14.30786158648770
ITAMSAT (IO-26)         
1 22826U 93061D   25123.88298496  .00000236  00000+0  10646-3 0  9996
2 22826  98.7339 185.1314 0008584 197.6388 162.4498 14.31197746649018
RADIO ROSTO (RS-15)     
1 23439U 94085A   25123.90402197 -.00000031  00000+0  31630-3 0  9992
2 23439  64.8163 245.1140 0145657  81.5534 280.1869 11.27581472249751
JAS-2 (FO-29)           
1 24278U 96046B   25123.71146292  .00000037  00000+0  70913-4 0  9996
2 24278  98.5796  22.4504 0350954  78.1486 285.8783 13.53246032417783
TECHSAT 1B (GO-32)      
1 25397U 98043D   25123.88146794  .00000180  00000+0  98084-4 0  9991
2 25397  98.9684 102.2396 0000962  11.2604 348.8596 14.24305028393069
ISS (ZARYA)             
1 25544U 98067A   25124.17583429  .00010980  00000+0  20479-3 0  9995
2 25544  51.6364 165.0572 0002347  78.0135  27.5001 15.49334428508330
PCSAT (NO-44)           
1 26931U 01043C   25123.69164143  .00000358  00000+0  16519-3 0  9996
2 26931  67.0512 223.2124 0005708 272.6492  87.3956 14.31715833231822
SAUDISAT 1C (SO-50)     
1 27607U 02058C   25123.96813963  .00002084  00000+0  27747-3 0  9998
2 27607  64.5543 313.5388 0051950 342.5947  17.3375 14.81523750204015
CUTE-1 (CO-55)          
1 27844U 03031E   25123.57964541  .00000608  00000+0  28400-3 0  9996
2 27844  98.6772 132.3296 0008473 298.6375  61.3951 14.23965551133377
CUBESAT XI-IV (CO-57)   
1 27848U 03031J   25123.58112589  .00000516  00000+0  24685-3 0  9997
2 27848  98.6801 132.3645 0008623 317.9738  42.0778 14.23304421133104
